OBJECT_NAME,OBJECT_ID,EPOCH,MEAN_MOTION,ECCENTRICITY,INCLINATION,RA_OF_ASC_NODE,ARG_OF_PERICENTER,MEAN_ANOMALY,EPHEMERIS_TYPE,CLASSIFICATION_TYPE,NORAD_CAT_ID,ELEMENT_SET_NO,REV_AT_EPOCH,BSTAR,MEAN_MOTION_DOT,MEAN_MOTION_DDOT
COSMOS 2251 DEB,1993-036SZ,2021-10-01T17:44:46.129056,14.49374534,.0061012,74.0461,165.1206,230.0505,129.5287,0,U,34456,999,66171,.68521E-3,.2654E-4,0
COSMOS 2251 DEB,1993-036TA,2021-10-01T10:19:20.214048,14.64149664,.0101264,74.0003,251.9150,36.8499,120.5453,0,U,34457,999,66994,.50005E-3,.2801E-4,0
COSMOS 2251 DEB,1993-036TB,2021-10-01T20:57:16.080192,14.51656756,.0016649,74.0279,91.9430,159.9425,268.0530,0,U,34458,999,66409,.6717E-3,.2672E-4,0
COSMOS 2251 DEB,1993-036TC,2021-10-01T17:36:39.187296,13.97430559,.0197269,74.0829,15.5776,93.6187,268.7528,0,U,34459,999,64278,.10313E-3,.149E-5,0
COSMOS 2251 DEB,1993-036TH,2021-10-01T21:35:05.468640,14.64981265,.0052806,74.0224,226.7164,44.3035,15.6417,0,U,34464,999,67148,.33272E-3,.1787E-4,0
COSMOS 2251 DEB,1993-036TJ,2021-10-01T18:32:10.193280,14.53772701,.0093799,74.0741,92.6225,144.7876,215.9535,0,U,34465,999,66426,.72434E-3,.3193E-4,0
COSMOS 2251 DEB,1993-036TM,2021-10-01T21:43:37.055136,14.42969350,.0081841,74.0132,95.6169,250.3255,108.9058,0,U,34468,999,66374,.78682E-4,.245E-5,0
COSMOS 2251 DEB,1993-036TN,2021-10-02T02:27:09.298944,14.66826236,.0009261,74.0161,305.6382,63.1179,297.0936,0,U,34469,999,66888,.63883E-3,.3539E-4,0
COSMOS 2251 DEB,1993-036TR,2021-10-01T22:06:08.142048,13.64668409,.0344117,74.0834,85.1465,205.9979,152.3499,0,U,34472,999,62829,.28169E-3,.317E-5,0
COSMOS 2251 DEB,1993-036TS,2021-10-01T15:36:46.649952,14.48316089,.002534,74.0304,130.1807,183.2469,233.8410,0,U,34473,999,66346,.48836E-3,.1806E-4,0
COSMOS 2251 DEB,1993-036TT,2021-10-01T23:10:16.926816,13.94558229,.0229536,74.0797,90.6035,173.1606,314.0842,0,U,34474,999,64101,.58698E-3,.953E-5,0
COSMOS 2251 DEB,1993-036TV,2021-10-01T19:20:33.525312,13.64653911,.0361893,74.0142,100.4194,287.0392,69.1375,0,U,34476,999,62622,.87906E-3,.108E-4,0
COSMOS 2251 DEB,1993-036TW,2021-10-01T19:41:18.231360,14.45088975,.0091373,73.9816,75.9679,261.0419,218.1436,0,U,34477,999,66414,.18141E-3,.637E-5,0
COSMOS 2251 DEB,1993-036TX,2021-10-01T22:37:27.865632,14.51297574,.0097009,74.0615,84.4896,337.7547,184.4937,0,U,34478,999,66553,.31064E-3,.1284E-4,0
COSMOS 2251 DEB,1993-036UA,2021-10-01T13:00:16.182144,14.25880594,.0074874,73.9818,323.6016,122.9881,307.6796,0,U,34481,999,65556,.89942E-4,.195E-5,0
COSMOS 2251 DEB,1993-036UB,2021-10-01T21:38:40.856064,14.39704295,.0077175,74.0502,219.3398,301.9235,113.5805,0,U,34482,999,65975,.42797E-3,.136E-4,0
COSMOS 2251 DEB,1993-036UC,2021-10-01T23:09:11.380320,14.67741000,.0021189,74.0209,259.9406,58.6395,301.6845,0,U,34542,999,66882,.65469E-3,.3713E-4,0
COSMOS 2251 DEB,1993-036UE,2021-10-01T18:00:36.207648,13.51757296,.0392561,73.9182,158.4779,110.1282,311.6038,0,U,34544,999,62149,.31584E-3,.316E-5,0
COSMOS 2251 DEB,1993-036UF,2021-10-01T16:35:39.012000,14.62508103,.0014036,74.0374,0.6625,74.6498,285.6218,0,U,34545,999,66692,.70558E-3,.3554E-4,0
COSMOS 2251 DEB,1993-036UG,2021-10-02T01:37:43.823712,14.37019736,.0026044,74.0358,202.6733,290.5617,82.7467,0,U,34546,999,66004,.16985E-3,.479E-5,0
COSMOS 2251 DEB,1993-036UH,2021-10-01T14:55:42.314592,14.45920437,.0036298,74.0381,122.8662,222.4021,137.4332,0,U,34547,999,66224,.28173E-3,.983E-5,0
COSMOS 2251 DEB,1993-036UL,2021-10-01T09:19:31.136448,14.30624531,.0169539,73.9944,37.5475,209.2277,149.9308,0,U,34550,999,65162,.13946E-2,.4235E-4,0
COSMOS 2251 DEB,1993-036UN,2021-10-01T21:10:01.342272,14.49399930,.0033468,74.0320,134.5767,196.0722,177.1053,0,U,34552,999,66074,.5217E-3,.1982E-4,0
COSMOS 2251 DEB,1993-036UP,2021-10-01T19:56:43.050048,14.40599851,.0028101,74.0319,177.1841,265.0415,158.6005,0,U,34553,999,65983,.21862E-3,.673E-5,0
COSMOS 2251 DEB,1993-036UQ,2021-10-01T21:58:05.941920,14.34068156,.0026078,74.0391,230.5864,308.7887,114.8362,0,U,34554,999,65759,.81425E-4,.202E-5,0
COSMOS 2251 DEB,1993-036UR,2021-10-01T21:48:14.688576,14.53970320,.0023332,74.0269,78.6656,150.1779,330.5080,0,U,34555,999,66253,.71377E-3,.299E-4,0
COSMOS 2251 DEB,1993-036US,2021-10-01T17:46:04.391904,14.44387128,.0023646,74.0304,150.5495,226.0959,206.2808,0,U,34556,999,66027,.32927E-3,.1112E-4,0
COSMOS 2251 DEB,1993-036UW,2021-10-01T19:14:35.430144,14.43322311,.0029933,74.0275,157.4789,248.7911,189.6949,0,U,34560,999,65985,.3324E-3,.11E-4,0
COSMOS 2251 DEB,1993-036UX,2021-10-01T18:26:45.496032,14.56385825,.0038932,74.0347,31.5401,141.3274,219.0690,0,U,34561,999,66418,.55539E-3,.2461E-4,0
COSMOS 2251 DEB,1993-036UZ,2021-10-01T18:45:51.998976,14.39617109,.0015812,74.0411,166.1239,275.8027,149.2156,0,U,34563,999,66096,.13723E-3,.403E-5,0
