tleArray_g = [ {"id": 34456, "Line1": "1 34456U 93036SZ  21274.73942279  .00002654  00000-0  68521-3 0  9994", "Line2": "2 34456  74.0461 165.1206 0061012 230.0505 129.5287 14.49374534661711"}, {"id": 34457, "Line1": "1 34457U 93036TA  21274.43009507  .00002801  00000-0  50005-3 0  9992", "Line2": "2 34457  74.0003 251.9150 0101264  36.8499 120.5453 14.64149664669944"}, {"id": 34458, "Line1": "1 34458U 93036TB  21274.87310278  .00002672  00000-0  67170-3 0  9998", "Line2": "2 34458  74.0279  91.9430 0016649 159.9425 268.0530 14.51656756664097"}, {"id": 34459, "Line1": "1 34459U 93036TC  21274.73378689  .00000149  00000-0  10313-3 0  9998", "Line2": "2 34459  74.0829  15.5776 0197269  93.6187 268.7528 13.97430559642787"}, {"id": 34464, "Line1": "1 34464U 93036TH  21274.89936885  .00001787  00000-0  33272-3 0  9997", "Line2": "2 34464  74.0224 226.7164 0052806  44.3035  15.6417 14.64981265671486"}, {"id": 34465, "Line1": "1 34465U 93036TJ  21274.77234020  .00003193  00000-0  72434-3 0  9993", "Line2": "2 34465  74.0741  92.6225 0093799 144.7876 215.9535 14.53772701664268"}, {"id": 34468, "Line1": "1 34468U 93036TM  21274.90528999  .00000245  00000-0  78682-4 0  9999", "Line2": "2 34468  74.0132  95.6169 0081841 250.3255 108.9058 14.42969350663744"}, {"id": 34469, "Line1": "1 34469U 93036TN  21275.10219096  .00003539  00000-0  63883-3 0  9993", "Line2": "2 34469  74.0161 305.6382 0009261  63.1179 297.0936 14.66826236668885"}, {"id": 34472, "Line1": "1 34472U 93036TR  21274.92092757  .00000317  00000-0  28169-3 0  9998", "Line2": "2 34472  74.0834  85.1465 0344117 205.9979 152.3499 13.64668409628295"}, {"id": 34473, "Line1": "1 34473U 93036TS  21274.65053993  .00001806  00000-0  48836-3 0  9995", "Line2": "2 34473  74.0304 130.1807 0025340 183.2469 233.8410 14.48316089663468"}, {"id": 34474, "Line1": "1 34474U 93036TT  21274.96547369  .00000953  00000-0  58698-3 0  9994", "Line2": "2 34474  74.0797  90.6035 0229536 173.1606 314.0842 13.94558229641014"}, {"id": 34476, "Line1": "1 34476U 93036TV  21274.80594358  .00001080  00000-0  87906-3 0  9995", "Line2": "2 34476  74.0142 100.4194 0361893 287.0392  69.1375 13.64653911626222"}, {"id": 34477, "Line1": "1 34477U 93036TW  21274.82034990  .00000637  00000-0  18141-3 0  9991", "Line2": "2 34477  73.9816  75.9679 0091373 261.0419 218.1436 14.45088975664147"}, {"id": 34478, "Line1": "1 34478U 93036TX  21274.94268363  .00001284  00000-0  31064-3 0  9996", "Line2": "2 34478  74.0615  84.4896 0097009 337.7547 184.4937 14.51297574665537"}, {"id": 34481, "Line1": "1 34481U 93036UA  21274.54185396  .00000195  00000-0  89942-4 0  9999", "Line2": "2 34481  73.9818 323.6016 0074874 122.9881 307.6796 14.25880594655561"}, {"id": 34482, "Line1": "1 34482U 93036UB  21274.90186176  .00001360  00000-0  42797-3 0  9998", "Line2": "2 34482  74.0502 219.3398 0077175 301.9235 113.5805 14.39704295659755"}, {"id": 34542, "Line1": "1 34542U 93036UC  21274.96471505  .00003713  00000-0  65469-3 0  9999", "Line2": "2 34542  74.0209 259.9406 0021189  58.6395 301.6845 14.67741000668821"}, {"id": 34544, "Line1": "1 34544U 93036UE  21274.75041907  .00000316  00000-0  31584-3 0  9994", "Line2": "2 34544  73.9182 158.4779 0392561 110.1282 311.6038 13.51757296621494"}, {"id": 34545, "Line1": "1 34545U 93036UF  21274.69142375  .00003554  00000-0  70558-3 0  9990", "Line2": "2 34545  74.0374   0.6625 0014036  74.6498 285.6218 14.62508103666920"}, {"id": 34546, "Line1": "1 34546U 93036UG  21275.06786833  .00000479  00000-0  16985-3 0  9993", "Line2": "2 34546  74.0358 202.6733 0026044 290.5617  82.7467 14.37019736660041"}, {"id": 34547, "Line1": "1 34547U 93036UH  21274.62201753  .00000983  00000-0  28173-3 0  9990", "Line2": "2 34547  74.0381 122.8662 0036298 222.4021 137.4332 14.45920437662248"}, {"id": 34550, "Line1": "1 34550U 93036UL  21274.38855482  .00004235  00000-0  13946-2 0  9996", "Line2": "2 34550  73.9944  37.5475 0169539 209.2277 149.9308 14.30624531651621"}, {"id": 34552, "Line1": "1 34552U 93036UN  21274.88195998  .00001982  00000-0  52170-3 0  9991", "Line2": "2 34552  74.0320 134.5767 0033468 196.0722 177.1053 14.49399930660749"}, {"id": 34553, "Line1": "1 34553U 93036UP  21274.83105382  .00000673  00000-0  21862-3 0  9995", "Line2": "2 34553  74.0319 177.1841 0028101 265.0415 158.6005 14.40599851659832"}, {"id": 34554, "Line1": "1 34554U 93036UQ  21274.91534655  .00000202  00000-0  81425-4 0  9994", "Line2": "2 34554  74.0391 230.5864 0026078 308.7887 114.8362 14.34068156657594"}, {"id": 34555, "Line1": "1 34555U 93036UR  21274.90850334  .00002990  00000-0  71377-3 0  9999", "Line2": "2 34555  74.0269  78.6656 0023332 150.1779 330.5080 14.53970320662538"}, {"id": 34556, "Line1": "1 34556U 93036US  21274.74032861  .00001112  00000-0  32927-3 0  9992", "Line2": "2 34556  74.0304 150.5495 0023646 226.0959 206.2808 14.44387128660275"}, {"id": 34560, "Line1": "1 34560U 93036UW  21274.80179896  .00001100  00000-0  33240-3 0  9990", "Line2": "2 34560  74.0275 157.4789 0029933 248.7911 189.6949 14.43322311659857"}, {"id": 34561, "Line1": "1 34561U 93036UX  21274.76858213  .00002461  00000-0  55539-3 0  9999", "Line2": "2 34561  74.0347  31.5401 0038932 141.3274 219.0690 14.56385825664186"}, {"id": 34563, "Line1": "1 34563U 93036UZ  21274.78185184  .00000403  00000-0  13723-3 0  9996", "Line2": "2 34563  74.0411 166.1239 0015812 275.8027 149.2156 14.39617109660962"}];